CCSDS_OMM_VERS = 2.0
CREATION_DATE  = 
ORIGINATOR     = 

OBJECT_NAME    = SOYUZ-MS 28
OBJECT_ID      = 2025-275A
CENTER_NAME    = EARTH
REF_FRAME      = TEME
TIME_SYSTEM    = UTC
MEAN_ELEMENT_THEORY = SGP/SGP4

EPOCH          = 2025-12-17T19:54:10.621440
MEAN_MOTION    = 15.49640803
ECCENTRICITY   = .00031686
INCLINATION    = 51.6309
RA_OF_ASC_NODE = 117.2752
ARG_OF_PERICENTER = 263.8701
MEAN_ANOMALY   = 96.1927

EPHEMERIS_TYPE = 0
CLASSIFICATION_TYPE = U
NORAD_CAT_ID   = 66664
ELEMENT_SET_NO = 999
REV_AT_EPOCH   = 128
BSTAR          = .14328078E-3
MEAN_MOTION_DOT = .7629E-4
MEAN_MOTION_DDOT = 0

CCSDS_OMM_VERS = 2.0
CREATION_DATE  = 
ORIGINATOR     = 

OBJECT_NAME    = 1998-067XS
OBJECT_ID      = 1998-067XS
CENTER_NAME    = EARTH
REF_FRAME      = TEME
TIME_SYSTEM    = UTC
MEAN_ELEMENT_THEORY = SGP/SGP4

EPOCH          = 2025-12-17T16:35:43.301760
MEAN_MOTION    = 15.50834133
ECCENTRICITY   = .0003138
INCLINATION    = 51.6309
RA_OF_ASC_NODE = 117.8563
ARG_OF_PERICENTER = 226.0893
MEAN_ANOMALY   = 133.9837

EPHEMERIS_TYPE = 0
CLASSIFICATION_TYPE = U
NORAD_CAT_ID   = 66906
ELEMENT_SET_NO = 999
REV_AT_EPOCH   = 238
BSTAR          = .42869394E-3
MEAN_MOTION_DOT = .24822E-3
MEAN_MOTION_DDOT = 0

CCSDS_OMM_VERS = 2.0
CREATION_DATE  = 
ORIGINATOR     = 

OBJECT_NAME    = 1998-067XT
OBJECT_ID      = 1998-067XT
CENTER_NAME    = EARTH
REF_FRAME      = TEME
TIME_SYSTEM    = UTC
MEAN_ELEMENT_THEORY = SGP/SGP4

EPOCH          = 2025-12-17T19:32:19.947264
MEAN_MOTION    = 15.52074588
ECCENTRICITY   = .00039845
INCLINATION    = 51.6304
RA_OF_ASC_NODE = 117.1744
ARG_OF_PERICENTER = 257.0045
MEAN_ANOMALY   = 103.0500

EPHEMERIS_TYPE = 0
CLASSIFICATION_TYPE = U
NORAD_CAT_ID   = 66907
ELEMENT_SET_NO = 999
REV_AT_EPOCH   = 240
BSTAR          = .89323104E-3
MEAN_MOTION_DOT = .54815E-3
MEAN_MOTION_DDOT = 0

CCSDS_OMM_VERS = 2.0
CREATION_DATE  = 
ORIGINATOR     = 

OBJECT_NAME    = 1998-067XU
OBJECT_ID      = 1998-067XU
CENTER_NAME    = EARTH
REF_FRAME      = TEME
TIME_SYSTEM    = UTC
MEAN_ELEMENT_THEORY = SGP/SGP4

EPOCH          = 2025-12-17T14:53:17.519424
MEAN_MOTION    = 15.52149323
ECCENTRICITY   = .00041086
INCLINATION    = 51.6303
RA_OF_ASC_NODE = 118.1303
ARG_OF_PERICENTER = 254.9738
MEAN_ANOMALY   = 105.0797

EPHEMERIS_TYPE = 0
CLASSIFICATION_TYPE = U
NORAD_CAT_ID   = 66908
ELEMENT_SET_NO = 999
REV_AT_EPOCH   = 237
BSTAR          = .89135269E-3
MEAN_MOTION_DOT = .54848E-3
MEAN_MOTION_DDOT = 0

CCSDS_OMM_VERS = 2.0
CREATION_DATE  = 
ORIGINATOR     = 

OBJECT_NAME    = SILVERSAT
OBJECT_ID      = 1998-067XV
CENTER_NAME    = EARTH
REF_FRAME      = TEME
TIME_SYSTEM    = UTC
MEAN_ELEMENT_THEORY = SGP/SGP4

EPOCH          = 2025-12-17T14:52:13.125504
MEAN_MOTION    = 15.52286885
ECCENTRICITY   = .00039934
INCLINATION    = 51.6308
RA_OF_ASC_NODE = 118.1251
ARG_OF_PERICENTER = 257.3923
MEAN_ANOMALY   = 102.6620

EPHEMERIS_TYPE = 0
CLASSIFICATION_TYPE = U
NORAD_CAT_ID   = 66909
ELEMENT_SET_NO = 999
REV_AT_EPOCH   = 237
BSTAR          = .95195038E-3
MEAN_MOTION_DOT = .58931E-3
MEAN_MOTION_DDOT = 0

CCSDS_OMM_VERS = 2.0
CREATION_DATE  = 
ORIGINATOR     = 

OBJECT_NAME    = 1998-067XW
OBJECT_ID      = 1998-067XW
CENTER_NAME    = EARTH
REF_FRAME      = TEME
TIME_SYSTEM    = UTC
MEAN_ELEMENT_THEORY = SGP/SGP4

EPOCH          = 2025-12-17T14:49:41.645568
MEAN_MOTION    = 15.52327753
ECCENTRICITY   = .00045296
INCLINATION    = 51.6302
RA_OF_ASC_NODE = 118.1137
ARG_OF_PERICENTER = 233.5237
MEAN_ANOMALY   = 126.5336

EPHEMERIS_TYPE = 0
CLASSIFICATION_TYPE = U
NORAD_CAT_ID   = 66910
ELEMENT_SET_NO = 999
REV_AT_EPOCH   = 237
BSTAR          = .83127757E-3
MEAN_MOTION_DOT = .51432E-3
MEAN_MOTION_DDOT = 0

CCSDS_OMM_VERS = 2.0
CREATION_DATE  = 
ORIGINATOR     = 

OBJECT_NAME    = 1998-067XX
OBJECT_ID      = 1998-067XX
CENTER_NAME    = EARTH
REF_FRAME      = TEME
TIME_SYSTEM    = UTC
MEAN_ELEMENT_THEORY = SGP/SGP4

EPOCH          = 2025-12-17T14:47:13.814304
MEAN_MOTION    = 15.52703134
ECCENTRICITY   = .00042191
INCLINATION    = 51.6305
RA_OF_ASC_NODE = 118.1027
ARG_OF_PERICENTER = 237.6725
MEAN_ANOMALY   = 122.3857

EPHEMERIS_TYPE = 0
CLASSIFICATION_TYPE = U
NORAD_CAT_ID   = 66911
ELEMENT_SET_NO = 999
REV_AT_EPOCH   = 236
BSTAR          = .97424314E-3
MEAN_MOTION_DOT = .61259E-3
MEAN_MOTION_DDOT = 0

CCSDS_OMM_VERS = 2.0
CREATION_DATE  = 
ORIGINATOR     = 

OBJECT_NAME    = 1998-067XY
OBJECT_ID      = 1998-067XY
CENTER_NAME    = EARTH
REF_FRAME      = TEME
TIME_SYSTEM    = UTC
MEAN_ELEMENT_THEORY = SGP/SGP4

EPOCH          = 2025-12-17T14:57:17.442720
MEAN_MOTION    = 15.51610656
ECCENTRICITY   = .0004152
INCLINATION    = 51.6301
RA_OF_ASC_NODE = 118.1487
ARG_OF_PERICENTER = 250.0151
MEAN_ANOMALY   = 110.0391

EPHEMERIS_TYPE = 0
CLASSIFICATION_TYPE = U
NORAD_CAT_ID   = 66912
ELEMENT_SET_NO = 999
REV_AT_EPOCH   = 236
BSTAR          = .73169198E-3
MEAN_MOTION_DOT = .44013E-3
MEAN_MOTION_DDOT = 0

